{
  "norad_id": 65346,
  "name": "STARLINK-34873",
  "history": [
    {
      "epoch": "2026-03-28T18:39:13.721760Z",
      "apogee_km": 475.83555176770005,
      "perigee_km": 474.4946346801389,
      "latitude_deg": 2.992783966451843e-05,
      "longitude_deg": 11.764727600533858,
      "height_km": 475.7174819213912,
      "semi_major_axis_km": 6853.302093223919,
      "eccentricity": 9.783e-05,
      "inclination_deg": 53.1573,
      "raan_deg": 117.7647,
      "arg_perigee_deg": 58.9329,
      "mean_anomaly_deg": 301.1768,
      "mean_motion_rev_day": 15.30216738
    },
    {
      "epoch": "2026-03-29T02:29:29.705856Z",
      "apogee_km": 476.3039033360674,
      "perigee_km": 474.05327449666765,
      "latitude_deg": -3.7600205674246974e-05,
      "longitude_deg": -107.63830906325596,
      "height_km": 476.1502101757658,
      "semi_major_axis_km": 6853.315588916367,
      "eccentricity": 0.0001642,
      "inclination_deg": 53.1579,
      "raan_deg": 116.2502,
      "arg_perigee_deg": 93.7846,
      "mean_anomaly_deg": 266.3342,
      "mean_motion_rev_day": 15.30212218
    },
    {
      "epoch": "2026-03-30T02:00:17.824896Z",
      "apogee_km": 476.73765275742153,
      "perigee_km": 473.5220999390385,
      "latitude_deg": -2.5379986248481797e-05,
      "longitude_deg": -105.85445505055343,
      "height_km": 475.9625821396421,
      "semi_major_axis_km": 6853.26687634823,
      "eccentricity": 0.0002346,
      "inclination_deg": 53.1584,
      "raan_deg": 111.7002,
      "arg_perigee_deg": 87.7307,
      "mean_anomaly_deg": 272.3962,
      "mean_motion_rev_day": 15.30228533
    },
    {
      "epoch": "2026-03-30T05:08:23.965728Z",
      "apogee_km": 475.49370094098504,
      "perigee_km": 474.8859479181938,
      "latitude_deg": -1.1088235196987924e-05,
      "longitude_deg": -153.6175825328061,
      "height_km": 476.01914580641846,
      "semi_major_axis_km": 6853.326824429589,
      "eccentricity": 4.434e-05,
      "inclination_deg": 53.158,
      "raan_deg": 111.0914,
      "arg_perigee_deg": 76.7505,
      "mean_anomaly_deg": 283.3545,
      "mean_motion_rev_day": 15.30208455
    },
    {
      "epoch": "2026-03-30T11:24:36.915264Z",
      "apogee_km": 475.99987514820714,
      "perigee_km": 474.3764594825734,
      "latitude_deg": -2.372914560730119e-05,
      "longitude_deg": 110.85914136825386,
      "height_km": 476.0519739676682,
      "semi_major_axis_km": 6853.32516731539,
      "eccentricity": 0.00011844,
      "inclination_deg": 53.1583,
      "raan_deg": 109.8796,
      "arg_perigee_deg": 87.5844,
      "mean_anomaly_deg": 272.5292,
      "mean_motion_rev_day": 15.3020901
    },
    {
      "epoch": "2026-03-31T10:55:24.848544Z",
      "apogee_km": 476.05391729892017,
      "perigee_km": 474.3822469272918,
      "latitude_deg": 7.937011963510206e-05,
      "longitude_deg": 112.64203990602056,
      "height_km": 475.96189602956684,
      "semi_major_axis_km": 6853.355082113106,
      "eccentricity": 0.00012196,
      "inclination_deg": 53.1582,
      "raan_deg": 105.3278,
      "arg_perigee_deg": 79.3719,
      "mean_anomaly_deg": 280.742,
      "mean_motion_rev_day": 15.30198991
    },
    {
      "epoch": "2026-04-01T07:18:06.509664Z",
      "apogee_km": 476.04569562662255,
      "perigee_km": 474.39814814180136,
      "latitude_deg": -5.694422741151946e-05,
      "longitude_deg": 162.18764693417185,
      "height_km": 475.9071733560957,
      "semi_major_axis_km": 6853.358921884212,
      "eccentricity": 0.0001202,
      "inclination_deg": 53.1585,
      "raan_deg": 101.384,
      "arg_perigee_deg": 75.0278,
      "mean_anomaly_deg": 285.0855,
      "mean_motion_rev_day": 15.30197705
    },
    {
      "epoch": "2026-04-02T06:48:54.410112Z",
      "apogee_km": 476.0872788915067,
      "perigee_km": 474.30554927051435,
      "latitude_deg": 2.8754490471928177e-05,
      "longitude_deg": 163.97156949160495,
      "height_km": 476.0808517696058,
      "semi_major_axis_km": 6853.33341408101,
      "eccentricity": 0.00012999,
      "inclination_deg": 53.1587,
      "raan_deg": 96.8331,
      "arg_perigee_deg": 89.1346,
      "mean_anomaly_deg": 270.9804,
      "mean_motion_rev_day": 15.30206248
    },
    {
      "epoch": "2026-04-03T06:19:41.983968Z",
      "apogee_km": 476.4291213666038,
      "perigee_km": 473.97014418276467,
      "latitude_deg": 1.435073414330883e-05,
      "longitude_deg": 165.7559814141887,
      "height_km": 476.18187245163574,
      "semi_major_axis_km": 6853.336632774684,
      "eccentricity": 0.0001794,
      "inclination_deg": 53.1593,
      "raan_deg": 92.2814,
      "arg_perigee_deg": 93.963,
      "mean_anomaly_deg": 266.1576,
      "mean_motion_rev_day": 15.3020517
    },
    {
      "epoch": "2026-04-04T08:58:37.179552Z",
      "apogee_km": 476.06049868520677,
      "perigee_km": 474.3556605631993,
      "latitude_deg": 5.326018046387831e-05,
      "longitude_deg": 119.77460659151338,
      "height_km": 476.20363311876025,
      "semi_major_axis_km": 6853.345079624203,
      "eccentricity": 0.00012438,
      "inclination_deg": 53.1598,
      "raan_deg": 87.1244,
      "arg_perigee_deg": 96.5653,
      "mean_anomaly_deg": 263.549,
      "mean_motion_rev_day": 15.30202341
    },
    {
      "epoch": "2026-04-05T06:55:22.626048Z",
      "apogee_km": 476.17400420588183,
      "perigee_km": 474.4839394972232,
      "latitude_deg": 1.952275341927811e-05,
      "longitude_deg": 145.4357315008912,
      "height_km": 476.04852245541235,
      "semi_major_axis_km": 6853.465971851552,
      "eccentricity": 0.0001233,
      "inclination_deg": 53.1601,
      "raan_deg": 82.8762,
      "arg_perigee_deg": 77.7977,
      "mean_anomaly_deg": 282.3162,
      "mean_motion_rev_day": 15.30161853
    },
    {
      "epoch": "2026-04-06T04:52:07.863456Z",
      "apogee_km": 476.04549694983234,
      "perigee_km": 474.2007363916264,
      "latitude_deg": 3.2136386431400846e-06,
      "longitude_deg": 171.10144231455894,
      "height_km": 475.5683249192933,
      "semi_major_axis_km": 6853.260116670729,
      "eccentricity": 0.00013459,
      "inclination_deg": 53.1597,
      "raan_deg": 78.6317,
      "arg_perigee_deg": 60.5866,
      "mean_anomaly_deg": 299.5269,
      "mean_motion_rev_day": 15.30230797
    },
    {
      "epoch": "2026-04-07T07:31:00.340032Z",
      "apogee_km": 475.8997185627595,
      "perigee_km": 474.3068884514187,
      "latitude_deg": -1.164163190268004e-05,
      "longitude_deg": 125.12858516813428,
      "height_km": 475.7186007373591,
      "semi_major_axis_km": 6853.240303507088,
      "eccentricity": 0.00011621,
      "inclination_deg": 53.1614,
      "raan_deg": 73.4719,
      "arg_perigee_deg": 69.1702,
      "mean_anomaly_deg": 290.9423,
      "mean_motion_rev_day": 15.30237433
    },
    {
      "epoch": "2026-04-08T14:52:04.044864Z",
      "apogee_km": 476.20216315475864,
      "perigee_km": 474.42876379531026,
      "latitude_deg": -2.4774025771718795e-05,
      "longitude_deg": 7.507193641583741,
      "height_km": 476.0827052775696,
      "semi_major_axis_km": 6853.452463475034,
      "eccentricity": 0.00012938,
      "inclination_deg": 53.16,
      "raan_deg": 67.4035,
      "arg_perigee_deg": 81.5163,
      "mean_anomaly_deg": 278.5984,
      "mean_motion_rev_day": 15.30166377
    },
    {
      "epoch": "2026-04-09T08:06:41.128128Z",
      "apogee_km": 476.1172545618974,
      "perigee_km": 474.5789212990603,
      "latitude_deg": 6.2855935761121345e-06,
      "longitude_deg": 104.81063012994946,
      "height_km": 476.4223324986782,
      "semi_major_axis_km": 6853.485087930479,
      "eccentricity": 0.00011223,
      "inclination_deg": 53.1588,
      "raan_deg": 64.0696,
      "arg_perigee_deg": 103.2336,
      "mean_anomaly_deg": 256.879,
      "mean_motion_rev_day": 15.30155451
    },
    {
      "epoch": "2026-04-10T04:29:23.280864Z",
      "apogee_km": 476.13286838036674,
      "perigee_km": 474.2927439574105,
      "latitude_deg": -5.587867765967781e-05,
      "longitude_deg": 154.3564348880552,
      "height_km": 476.3839041283004,
      "semi_major_axis_km": 6853.349806168889,
      "eccentricity": 0.00013425,
      "inclination_deg": 53.1596,
      "raan_deg": 60.128,
      "arg_perigee_deg": 107.2658,
      "mean_anomaly_deg": 252.8489,
      "mean_motion_rev_day": 15.30200758
    },
    {
      "epoch": "2026-04-11T21:14:44.470752Z",
      "apogee_km": 475.94588528640816,
      "perigee_km": 474.42992981685893,
      "latitude_deg": 4.557115728046109e-05,
      "longitude_deg": -106.54666880808682,
      "height_km": 476.09616122316265,
      "semi_major_axis_km": 6853.324907551633,
      "eccentricity": 0.0001106,
      "inclination_deg": 53.1585,
      "raan_deg": 52.2369,
      "arg_perigee_deg": 90.765,
      "mean_anomaly_deg": 269.3478,
      "mean_motion_rev_day": 15.30209097
    },
    {
      "epoch": "2026-04-13T06:09:51.431328Z",
      "apogee_km": 475.64935535003406,
      "perigee_km": 474.7137403018851,
      "latitude_deg": -2.0632013451741984e-05,
      "longitude_deg": 111.95036005815739,
      "height_km": 476.24050508332726,
      "semi_major_axis_km": 6853.318547825959,
      "eccentricity": 6.826e-05,
      "inclination_deg": 53.1595,
      "raan_deg": 45.8649,
      "arg_perigee_deg": 110.0127,
      "mean_anomaly_deg": 250.0947,
      "mean_motion_rev_day": 15.30211227
    },
    {
      "epoch": "2026-04-14T19:47:07.397952Z",
      "apogee_km": 475.7276975937966,
      "perigee_km": 474.63527862679166,
      "latitude_deg": 1.1340419484048227e-05,
      "longitude_deg": -101.19568579007739,
      "height_km": 475.5541222151827,
      "semi_major_axis_km": 6853.318488110294,
      "eccentricity": 7.97e-05,
      "inclination_deg": 53.1571,
      "raan_deg": 38.5804,
      "arg_perigee_deg": 15.4325,
      "mean_anomaly_deg": 344.67,
      "mean_motion_rev_day": 15.30211247
    }
  ]
}